[{"OBJECT_NAME":"STARLINK-34327","OBJECT_ID":"2025-117F","EPOCH":"2026-03-09T21:54:35.635680","MEAN_MOTION":15.30200808,"ECCENTRICITY":0.00014386,"INCLINATION":53.1603,"RA_OF_ASC_NODE":38.3031,"ARG_OF_PERICENTER":71.5677,"MEAN_ANOMALY":288.548,"EPHEMERIS_TYPE":0,"CLASSIFICATION_TYPE":"U","NORAD_CAT_ID":64208,"ELEMENT_SET_NO":999,"REV_AT_EPOCH":4352,"BSTAR":0.0011024588,"MEAN_MOTION_DOT":0.00032436,"MEAN_MOTION_DDOT":0},{"OBJECT_NAME":"GEOSCAN 4 (RS92S4)","OBJECT_ID":"2025-155S","EPOCH":"2026-03-09T21:50:07.724832","MEAN_MOTION":15.30369837,"ECCENTRICITY":0.00070968,"INCLINATION":97.4465,"RA_OF_ASC_NODE":37.7626,"ARG_OF_PERICENTER":154.7045,"MEAN_ANOMALY":205.4544,"EPHEMERIS_TYPE":0,"CLASSIFICATION_TYPE":"U","NORAD_CAT_ID":64892,"ELEMENT_SET_NO":999,"REV_AT_EPOCH":6562,"BSTAR":0.00068609503,"MEAN_MOTION_DOT":0.00020121,"MEAN_MOTION_DDOT":0}]
